; generated by PrusaSlicer
; postprocessed: 2026-06-30T16:47:34
; --- E5S1 postprocess ---
; extruder_clearance_height = 20
; first_layer_height = 0.24
; layer_height = 0.2
; total_layer_count = 2

;TYPE:External perimeter
G28 ; postprocess homing
M420 S1 Z10 ; postprocess mesh
M109 S215 ; postprocess wait hotend
; postprocess skirt
G1 Z0.24 F600 ; postprocess skirt
G1 X3.0 Y3.0 F6000 ; postprocess skirt
G1 X43.0 Y3.0 E4.00 F600 ; postprocess skirt
G1 X43.0 Y43.0 E4.00 F600 ; postprocess skirt
G1 X3.0 Y43.0 E4.00 F600 ; postprocess skirt
G1 X3.0 Y3.0 E4.00 F600 ; postprocess skirt
G1 X2.0 Y2.0 F6000 ; postprocess skirt
G1 X45.0 Y2.0 E4.30 F600 ; postprocess skirt
G1 X45.0 Y45.0 E4.30 F600 ; postprocess skirt
G1 X2.0 Y45.0 E4.30 F600 ; postprocess skirt
G1 X2.0 Y2.0 E4.30 F600 ; postprocess skirt
G1 X2.0 Y2.0 F6000 ; postprocess skirt
G1 X47.0 Y2.0 E4.50 F600 ; postprocess skirt
G1 X47.0 Y47.0 E4.50 F600 ; postprocess skirt
G1 X2.0 Y47.0 E4.50 F600 ; postprocess skirt
G1 X2.0 Y2.0 E4.50 F600 ; postprocess skirt
G92 E0 ; postprocess skirt
M106 S0 ; fan adhesion postprocess
G1 X10 Y10 F600
M221 S105 ; postprocess small perimeter flow boost
G91
G1 Z-0.4 F600 ; postprocess z hop
G90
G1 E0.5 F1800 ; postprocess small perimeter unretract
G1 X12 Y10 E0.1 F900 ; postprocess small perimeter speed cap
G1 X12 Y12 E0.1
G1 X10 Y12 E0.1
G1 X10 Y10 E0.1
G1 E-0.5 F1800 ; postprocess small perimeter anti-stringing
M900 K0.08 ; linear advance postprocess
G91
G1 Z0.4 F600 ; postprocess z hop
G90
M221 S100 ; postprocess small perimeter flow reset
G1 X20 Y20 F600
